[{"OBJECT_NAME":"STARLINK-37054","OBJECT_ID":"2026-042P","EPOCH":"2026-03-28T22:00:01.999584","MEAN_MOTION":15.80799449,"ECCENTRICITY":0.00013171,"INCLINATION":53.1568,"RA_OF_ASC_NODE":98.3041,"ARG_OF_PERICENTER":59.8541,"MEAN_ANOMALY":5.7475,"EPHEMERIS_TYPE":0,"CLASSIFICATION_TYPE":"U","NORAD_CAT_ID":68082,"ELEMENT_SET_NO":999,"REV_AT_EPOCH":514,"BSTAR":0.00066641095,"MEAN_MOTION_DOT":0.00132413,"MEAN_MOTION_DDOT":0},{"OBJECT_NAME":"STARLINK-37065","OBJECT_ID":"2026-042Q","EPOCH":"2026-03-27T11:31:26.577408","MEAN_MOTION":15.75546988,"ECCENTRICITY":0.0001294,"INCLINATION":53.1585,"RA_OF_ASC_NODE":105.8417,"ARG_OF_PERICENTER":183.6169,"MEAN_ANOMALY":176.4842,"EPHEMERIS_TYPE":0,"CLASSIFICATION_TYPE":"U","NORAD_CAT_ID":68083,"ELEMENT_SET_NO":999,"REV_AT_EPOCH":489,"BSTAR":0.0022573,"MEAN_MOTION_DOT":0.00365638,"MEAN_MOTION_DDOT":0},{"OBJECT_NAME":"STARLINK-37037","OBJECT_ID":"2026-042R","EPOCH":"2026-03-28T17:32:32.468640","MEAN_MOTION":15.75295062,"ECCENTRICITY":0.000132,"INCLINATION":53.1591,"RA_OF_ASC_NODE":99.4146,"ARG_OF_PERICENTER":116.1185,"MEAN_ANOMALY":243.9971,"EPHEMERIS_TYPE":0,"CLASSIFICATION_TYPE":"U","NORAD_CAT_ID":68084,"ELEMENT_SET_NO":999,"REV_AT_EPOCH":509,"BSTAR":0.001532,"MEAN_MOTION_DOT":0.00241618,"MEAN_MOTION_DDOT":0},{"OBJECT_NAME":"STARLINK-37068","OBJECT_ID":"2026-042S","EPOCH":"2026-03-28T22:00:01.999584","MEAN_MOTION":15.75194318,"ECCENTRICITY":0.00013531,"INCLINATION":53.159,"RA_OF_ASC_NODE":98.3348,"ARG_OF_PERICENTER":81.1792,"MEAN_ANOMALY":328.3278,"EPHEMERIS_TYPE":0,"CLASSIFICATION_TYPE":"U","NORAD_CAT_ID":68085,"ELEMENT_SET_NO":999,"REV_AT_EPOCH":514,"BSTAR":0.00063036476,"MEAN_MOTION_DOT":0.00096911,"MEAN_MOTION_DDOT":0},{"OBJECT_NAME":"STARLINK-37067","OBJECT_ID":"2026-042T","EPOCH":"2026-03-28T12:32:55.437504","MEAN_MOTION":15.80999185,"ECCENTRICITY":0.00013454,"INCLINATION":53.1582,"RA_OF_ASC_NODE":100.242,"ARG_OF_PERICENTER":132.7786,"MEAN_ANOMALY":227.3351,"EPHEMERIS_TYPE":0,"CLASSIFICATION_TYPE":"U","NORAD_CAT_ID":68086,"ELEMENT_SET_NO":999,"REV_AT_EPOCH":506,"BSTAR":0.0011339411,"MEAN_MOTION_DOT":0.00230517,"MEAN_MOTION_DDOT":0},{"OBJECT_NAME":"STARLINK-37062","OBJECT_ID":"2026-042U","EPOCH":"2026-03-28T12:31:49.871136","MEAN_MOTION":15.81050491,"ECCENTRICITY":9.373e-5,"INCLINATION":53.1586,"RA_OF_ASC_NODE":100.2374,"ARG_OF_PERICENTER":139.8452,"MEAN_ANOMALY":220.2641,"EPHEMERIS_TYPE":0,"CLASSIFICATION_TYPE":"U","NORAD_CAT_ID":68087,"ELEMENT_SET_NO":999,"REV_AT_EPOCH":506,"BSTAR":0.001771199,"MEAN_MOTION_DOT":0.00367155,"MEAN_MOTION_DDOT":0},{"OBJECT_NAME":"STARLINK-37059","OBJECT_ID":"2026-042V","EPOCH":"2026-03-28T22:00:01.999584","MEAN_MOTION":15.75207954,"ECCENTRICITY":0.00012322,"INCLINATION":53.1591,"RA_OF_ASC_NODE":98.2781,"ARG_OF_PERICENTER":75.5194,"MEAN_ANOMALY":1.616,"EPHEMERIS_TYPE":0,"CLASSIFICATION_TYPE":"U","NORAD_CAT_ID":68088,"ELEMENT_SET_NO":999,"REV_AT_EPOCH":514,"BSTAR":0.0001865323,"MEAN_MOTION_DOT":0.00028009,"MEAN_MOTION_DDOT":0},{"OBJECT_NAME":"STARLINK-37004","OBJECT_ID":"2026-042W","EPOCH":"2026-03-28T22:00:01.999584","MEAN_MOTION":15.75177543,"ECCENTRICITY":0.00013743,"INCLINATION":53.1588,"RA_OF_ASC_NODE":98.3305,"ARG_OF_PERICENTER":103.5874,"MEAN_ANOMALY":307.8075,"EPHEMERIS_TYPE":0,"CLASSIFICATION_TYPE":"U","NORAD_CAT_ID":68089,"ELEMENT_SET_NO":999,"REV_AT_EPOCH":514,"BSTAR":0.00059514462,"MEAN_MOTION_DOT":0.00091333,"MEAN_MOTION_DDOT":0},{"OBJECT_NAME":"STARLINK-36320","OBJECT_ID":"2026-042X","EPOCH":"2026-03-27T03:41:33.349344","MEAN_MOTION":15.75432358,"ECCENTRICITY":0.00027632,"INCLINATION":53.1593,"RA_OF_ASC_NODE":107.3571,"ARG_OF_PERICENTER":139.4736,"MEAN_ANOMALY":220.6491,"EPHEMERIS_TYPE":0,"CLASSIFICATION_TYPE":"U","NORAD_CAT_ID":68090,"ELEMENT_SET_NO":999,"REV_AT_EPOCH":484,"BSTAR":0.002325439,"MEAN_MOTION_DOT":0.00375248,"MEAN_MOTION_DDOT":0},{"OBJECT_NAME":"STARLINK-36324","OBJECT_ID":"2026-042Y","EPOCH":"2026-03-27T16:00:01.999584","MEAN_MOTION":15.7528196,"ECCENTRICITY":0.00010156,"INCLINATION":53.159,"RA_OF_ASC_NODE":104.8665,"ARG_OF_PERICENTER":79.2879,"MEAN_ANOMALY":283.0326,"EPHEMERIS_TYPE":0,"CLASSIFICATION_TYPE":"U","NORAD_CAT_ID":68091,"ELEMENT_SET_NO":999,"REV_AT_EPOCH":493,"BSTAR":-0.00052598243,"MEAN_MOTION_DOT":-0.00080651,"MEAN_MOTION_DDOT":0},{"OBJECT_NAME":"STARLINK-36896","OBJECT_ID":"2026-042Z","EPOCH":"2026-03-28T13:04:57.966240","MEAN_MOTION":15.75388113,"ECCENTRICITY":0.000442,"INCLINATION":53.1599,"RA_OF_ASC_NODE":100.3901,"ARG_OF_PERICENTER":174.1508,"MEAN_ANOMALY":185.9565,"EPHEMERIS_TYPE":0,"CLASSIFICATION_TYPE":"U","NORAD_CAT_ID":68092,"ELEMENT_SET_NO":999,"REV_AT_EPOCH":505,"BSTAR":0.0014800129,"MEAN_MOTION_DOT":0.00234211,"MEAN_MOTION_DDOT":0},{"OBJECT_NAME":"STARLINK-36251","OBJECT_ID":"2026-042AA","EPOCH":"2026-03-28T12:24:16.692768","MEAN_MOTION":15.80994283,"ECCENTRICITY":6.975e-5,"INCLINATION":53.1589,"RA_OF_ASC_NODE":100.2023,"ARG_OF_PERICENTER":325.6743,"MEAN_ANOMALY":34.4234,"EPHEMERIS_TYPE":0,"CLASSIFICATION_TYPE":"U","NORAD_CAT_ID":68093,"ELEMENT_SET_NO":999,"REV_AT_EPOCH":505,"BSTAR":0.0017584348,"MEAN_MOTION_DOT":0.00363408,"MEAN_MOTION_DDOT":0},{"OBJECT_NAME":"STARLINK-36787","OBJECT_ID":"2026-042AB","EPOCH":"2026-03-27T16:00:01.999584","MEAN_MOTION":15.75263541,"ECCENTRICITY":0.00010853,"INCLINATION":53.1593,"RA_OF_ASC_NODE":104.8129,"ARG_OF_PERICENTER":94.2361,"MEAN_ANOMALY":293.8406,"EPHEMERIS_TYPE":0,"CLASSIFICATION_TYPE":"U","NORAD_CAT_ID":68094,"ELEMENT_SET_NO":999,"REV_AT_EPOCH":493,"BSTAR":-0.00039458536,"MEAN_MOTION_DOT":-0.00060756,"MEAN_MOTION_DDOT":0},{"OBJECT_NAME":"STARLINK-36790","OBJECT_ID":"2026-042AC","EPOCH":"2026-03-28T22:00:01.999584","MEAN_MOTION":15.7516928,"ECCENTRICITY":0.00010476,"INCLINATION":53.1586,"RA_OF_ASC_NODE":98.3876,"ARG_OF_PERICENTER":97.6738,"MEAN_ANOMALY":286.0992,"EPHEMERIS_TYPE":0,"CLASSIFICATION_TYPE":"U","NORAD_CAT_ID":68095,"ELEMENT_SET_NO":999,"REV_AT_EPOCH":513,"BSTAR":0.00077636556,"MEAN_MOTION_DOT":0.00119699,"MEAN_MOTION_DDOT":0},{"OBJECT_NAME":"STARLINK-36328","OBJECT_ID":"2026-042AD","EPOCH":"2026-03-27T12:05:19.595328","MEAN_MOTION":15.78521578,"ECCENTRICITY":9.07e-5,"INCLINATION":53.1583,"RA_OF_ASC_NODE":105.2594,"ARG_OF_PERICENTER":116.3541,"MEAN_ANOMALY":243.7574,"EPHEMERIS_TYPE":0,"CLASSIFICATION_TYPE":"U","NORAD_CAT_ID":68096,"ELEMENT_SET_NO":999,"REV_AT_EPOCH":489,"BSTAR":-0.0049254,"MEAN_MOTION_DOT":-0.00796908,"MEAN_MOTION_DDOT":0},{"OBJECT_NAME":"STARLINK-36853","OBJECT_ID":"2026-042AE","EPOCH":"2026-03-27T18:10:48.142560","MEAN_MOTION":15.80984131,"ECCENTRICITY":0.00031425,"INCLINATION":53.158,"RA_OF_ASC_NODE":103.9995,"ARG_OF_PERICENTER":75.7895,"MEAN_ANOMALY":284.3477,"EPHEMERIS_TYPE":0,"CLASSIFICATION_TYPE":"U","NORAD_CAT_ID":68097,"ELEMENT_SET_NO":999,"REV_AT_EPOCH":493,"BSTAR":0.0019782616,"MEAN_MOTION_DOT":0.00411016,"MEAN_MOTION_DDOT":0}]
